CCSDS_OMM_VERS = 2.0
CREATION_DATE  = 
ORIGINATOR     = 

OBJECT_NAME    = H-2A R/B
OBJECT_ID      = 2006-002B
CENTER_NAME    = EARTH
REF_FRAME      = TEME
TIME_SYSTEM    = UTC
MEAN_ELEMENT_THEORY = SGP/SGP4

EPOCH          = 2026-04-02T22:53:30.801408
MEAN_MOTION    = 15.16996141
ECCENTRICITY   = .00524264
INCLINATION    = 98.2460
RA_OF_ASC_NODE = 242.0809
ARG_OF_PERICENTER = 158.2849
MEAN_ANOMALY   = 202.0621

EPHEMERIS_TYPE = 0
CLASSIFICATION_TYPE = U
NORAD_CAT_ID   = 28932
ELEMENT_SET_NO = 999
REV_AT_EPOCH   = 9811
BSTAR          = .96270555E-3
MEAN_MOTION_DOT = .19663E-3
MEAN_MOTION_DDOT = 0

CCSDS_OMM_VERS = 2.0
CREATION_DATE  = 
ORIGINATOR     = 

OBJECT_NAME    = RESURS-DK 1
OBJECT_ID      = 2006-021A
CENTER_NAME    = EARTH
REF_FRAME      = TEME
TIME_SYSTEM    = UTC
MEAN_ELEMENT_THEORY = SGP/SGP4

EPOCH          = 2026-04-02T22:24:51.139008
MEAN_MOTION    = 15.12897286
ECCENTRICITY   = .000182
INCLINATION    = 69.9332
RA_OF_ASC_NODE = 174.3076
ARG_OF_PERICENTER = 38.9872
MEAN_ANOMALY   = 321.1425

EPHEMERIS_TYPE = 0
CLASSIFICATION_TYPE = U
NORAD_CAT_ID   = 29228
ELEMENT_SET_NO = 999
REV_AT_EPOCH   = 9119
BSTAR          = .21491283E-3
MEAN_MOTION_DOT = .3686E-4
MEAN_MOTION_DDOT = 0

CCSDS_OMM_VERS = 2.0
CREATION_DATE  = 
ORIGINATOR     = 

OBJECT_NAME    = CZ-4B R/B
OBJECT_ID      = 2006-046C
CENTER_NAME    = EARTH
REF_FRAME      = TEME
TIME_SYSTEM    = UTC
MEAN_ELEMENT_THEORY = SGP/SGP4

EPOCH          = 2026-04-02T21:11:03.682464
MEAN_MOTION    = 15.17160804
ECCENTRICITY   = .00331933
INCLINATION    = 97.5539
RA_OF_ASC_NODE = 137.7240
ARG_OF_PERICENTER = 180.9804
MEAN_ANOMALY   = 179.1370

EPHEMERIS_TYPE = 0
CLASSIFICATION_TYPE = U
NORAD_CAT_ID   = 29507
ELEMENT_SET_NO = 999
REV_AT_EPOCH   = 6371
BSTAR          = .41293903E-3
MEAN_MOTION_DOT = .8246E-4
MEAN_MOTION_DDOT = 0

CCSDS_OMM_VERS = 2.0
CREATION_DATE  = 
ORIGINATOR     = 

OBJECT_NAME    = CZ-2C R/B
OBJECT_ID      = 2007-010B
CENTER_NAME    = EARTH
REF_FRAME      = TEME
TIME_SYSTEM    = UTC
MEAN_ELEMENT_THEORY = SGP/SGP4

EPOCH          = 2026-04-02T21:22:04.499904
MEAN_MOTION    = 14.20255614
ECCENTRICITY   = .00582644
INCLINATION    = 98.4004
RA_OF_ASC_NODE = 204.9592
ARG_OF_PERICENTER = 222.9596
MEAN_ANOMALY   = 136.7024

EPHEMERIS_TYPE = 0
CLASSIFICATION_TYPE = U
NORAD_CAT_ID   = 31114
ELEMENT_SET_NO = 999
REV_AT_EPOCH   = 98315
BSTAR          = .1202539E-3
MEAN_MOTION_DOT = .22E-5
MEAN_MOTION_DDOT = 0

CCSDS_OMM_VERS = 2.0
CREATION_DATE  = 
ORIGINATOR     = 

OBJECT_NAME    = COSMO-SKYMED 1
OBJECT_ID      = 2007-023A
CENTER_NAME    = EARTH
REF_FRAME      = TEME
TIME_SYSTEM    = UTC
MEAN_ELEMENT_THEORY = SGP/SGP4

EPOCH          = 2026-04-02T22:25:00.458976
MEAN_MOTION    = 14.96720999
ECCENTRICITY   = .00014534
INCLINATION    = 97.8866
RA_OF_ASC_NODE = 284.1642
ARG_OF_PERICENTER = 101.5069
MEAN_ANOMALY   = 258.6315

EPHEMERIS_TYPE = 0
CLASSIFICATION_TYPE = U
NORAD_CAT_ID   = 31598
ELEMENT_SET_NO = 999
REV_AT_EPOCH   = 1853
BSTAR          = .57735092E-3
MEAN_MOTION_DOT = .6539E-4
MEAN_MOTION_DDOT = 0

CCSDS_OMM_VERS = 2.0
CREATION_DATE  = 
ORIGINATOR     = 

OBJECT_NAME    = COSMOS 2428
OBJECT_ID      = 2007-029A
CENTER_NAME    = EARTH
REF_FRAME      = TEME
TIME_SYSTEM    = UTC
MEAN_ELEMENT_THEORY = SGP/SGP4

EPOCH          = 2026-04-02T21:18:59.693760
MEAN_MOTION    = 14.12948835
ECCENTRICITY   = .00096998
INCLINATION    = 70.9425
RA_OF_ASC_NODE = 152.5556
ARG_OF_PERICENTER = 252.0017
MEAN_ANOMALY   = 108.0047

EPHEMERIS_TYPE = 0
CLASSIFICATION_TYPE = U
NORAD_CAT_ID   = 31792
ELEMENT_SET_NO = 999
REV_AT_EPOCH   = 96751
BSTAR          = .25583312E-4
MEAN_MOTION_DOT = 0
MEAN_MOTION_DDOT = 0

CCSDS_OMM_VERS = 2.0
CREATION_DATE  = 
ORIGINATOR     = 

OBJECT_NAME    = SL-16 R/B
OBJECT_ID      = 2007-029B
CENTER_NAME    = EARTH
REF_FRAME      = TEME
TIME_SYSTEM    = UTC
MEAN_ELEMENT_THEORY = SGP/SGP4

EPOCH          = 2026-04-02T20:04:05.363616
MEAN_MOTION    = 14.14843881
ECCENTRICITY   = .00028751
INCLINATION    = 70.9742
RA_OF_ASC_NODE = 121.6284
ARG_OF_PERICENTER = 277.3899
MEAN_ANOMALY   = 257.0162

EPHEMERIS_TYPE = 0
CLASSIFICATION_TYPE = U
NORAD_CAT_ID   = 31793
ELEMENT_SET_NO = 999
REV_AT_EPOCH   = 96878
BSTAR          = -.15192835E-4
MEAN_MOTION_DOT = -.77E-6
MEAN_MOTION_DDOT = 0

CCSDS_OMM_VERS = 2.0
CREATION_DATE  = 
ORIGINATOR     = 

OBJECT_NAME    = KORONAS-FOTON
OBJECT_ID      = 2009-003A
CENTER_NAME    = EARTH
REF_FRAME      = TEME
TIME_SYSTEM    = UTC
MEAN_ELEMENT_THEORY = SGP/SGP4

EPOCH          = 2026-04-02T21:05:39.121728
MEAN_MOTION    = 15.44014391
ECCENTRICITY   = .00115202
INCLINATION    = 82.4279
RA_OF_ASC_NODE = 250.7135
ARG_OF_PERICENTER = 70.9796
MEAN_ANOMALY   = 289.2698

EPHEMERIS_TYPE = 0
CLASSIFICATION_TYPE = U
NORAD_CAT_ID   = 33504
ELEMENT_SET_NO = 999
REV_AT_EPOCH   = 94947
BSTAR          = .52707156E-3
MEAN_MOTION_DOT = .24158E-3
MEAN_MOTION_DDOT = 0

CCSDS_OMM_VERS = 2.0
CREATION_DATE  = 
ORIGINATOR     = 

OBJECT_NAME    = CZ-2C R/B
OBJECT_ID      = 2011-030B
CENTER_NAME    = EARTH
REF_FRAME      = TEME
TIME_SYSTEM    = UTC
MEAN_ELEMENT_THEORY = SGP/SGP4

EPOCH          = 2026-04-02T09:36:09.358848
MEAN_MOTION    = 14.81307565
ECCENTRICITY   = .00509691
INCLINATION    = 97.8585
RA_OF_ASC_NODE = 49.1963
ARG_OF_PERICENTER = 273.4339
MEAN_ANOMALY   = 202.0439

EPHEMERIS_TYPE = 0
CLASSIFICATION_TYPE = U
NORAD_CAT_ID   = 37731
ELEMENT_SET_NO = 999
REV_AT_EPOCH   = 79360
BSTAR          = .26404357E-3
MEAN_MOTION_DOT = .2051E-4
MEAN_MOTION_DDOT = 0

CCSDS_OMM_VERS = 2.0
CREATION_DATE  = 
ORIGINATOR     = 

OBJECT_NAME    = H-2A R/B
OBJECT_ID      = 2012-025E
CENTER_NAME    = EARTH
REF_FRAME      = TEME
TIME_SYSTEM    = UTC
MEAN_ELEMENT_THEORY = SGP/SGP4

EPOCH          = 2026-04-02T21:16:18.505056
MEAN_MOTION    = 14.95342386
ECCENTRICITY   = .00431111
INCLINATION    = 98.4773
RA_OF_ASC_NODE = 61.8793
ARG_OF_PERICENTER = 232.7624
MEAN_ANOMALY   = 126.9658

EPHEMERIS_TYPE = 0
CLASSIFICATION_TYPE = U
NORAD_CAT_ID   = 38341
ELEMENT_SET_NO = 999
REV_AT_EPOCH   = 75183
BSTAR          = .38943547E-3
MEAN_MOTION_DOT = .4306E-4
MEAN_MOTION_DDOT = 0

CCSDS_OMM_VERS = 2.0
CREATION_DATE  = 
ORIGINATOR     = 

OBJECT_NAME    = SHIJIAN-16 (SJ-16)
OBJECT_ID      = 2013-057A
CENTER_NAME    = EARTH
REF_FRAME      = TEME
TIME_SYSTEM    = UTC
MEAN_ELEMENT_THEORY = SGP/SGP4

EPOCH          = 2026-04-02T23:07:13.051200
MEAN_MOTION    = 14.92438725
ECCENTRICITY   = .00153132
INCLINATION    = 74.9718
RA_OF_ASC_NODE = 139.1364
ARG_OF_PERICENTER = 49.4762
MEAN_ANOMALY   = 310.7758

EPHEMERIS_TYPE = 0
CLASSIFICATION_TYPE = U
NORAD_CAT_ID   = 39358
ELEMENT_SET_NO = 999
REV_AT_EPOCH   = 67512
BSTAR          = .21025612E-3
MEAN_MOTION_DOT = .2131E-4
MEAN_MOTION_DDOT = 0

CCSDS_OMM_VERS = 2.0
CREATION_DATE  = 
ORIGINATOR     = 

OBJECT_NAME    = SL-4 R/B
OBJECT_ID      = 2014-021B
CENTER_NAME    = EARTH
REF_FRAME      = TEME
TIME_SYSTEM    = UTC
MEAN_ELEMENT_THEORY = SGP/SGP4

EPOCH          = 2026-04-02T17:02:42.421344
MEAN_MOTION    = 15.40065411
ECCENTRICITY   = .00946758
INCLINATION    = 51.6056
RA_OF_ASC_NODE = 220.0209
ARG_OF_PERICENTER = 190.5616
MEAN_ANOMALY   = 169.3382

EPHEMERIS_TYPE = 0
CLASSIFICATION_TYPE = U
NORAD_CAT_ID   = 39679
ELEMENT_SET_NO = 999
REV_AT_EPOCH   = 65997
BSTAR          = .50080395E-3
MEAN_MOTION_DOT = .23478E-3
MEAN_MOTION_DDOT = 0

