H-2A R/B                
1 28932U 06002B   26092.95382872  .00019663  00000+0  96271-3 0  9997
2 28932  98.2460 242.0809 0052426 158.2849 202.0621 15.16996141 98111
RESURS-DK 1             
1 29228U 06021A   26092.93392522  .00003686  00000+0  21491-3 0  9998
2 29228  69.9332 174.3076 0001820  38.9872 321.1425 15.12897286 91190
CZ-4B R/B               
1 29507U 06046C   26092.88268151  .00008246  00000+0  41294-3 0  9999
2 29507  97.5539 137.7240 0033193 180.9804 179.1370 15.17160804 63714
CZ-2C R/B               
1 31114U 07010B   26092.89032986  .00000220  00000+0  12025-3 0  9998
2 31114  98.4004 204.9592 0058264 222.9596 136.7024 14.20255614983157
COSMO-SKYMED 1          
1 31598U 07023A   26092.93403309  .00006539  00000+0  57735-3 0  9990
2 31598  97.8866 284.1642 0001453 101.5069 258.6315 14.96720999 18537
COSMOS 2428             
1 31792U 07029A   26092.88819090  .00000000  00000+0  25583-4 0  9998
2 31792  70.9425 152.5556 0009699 252.0017 108.0047 14.12948835967513
SL-16 R/B               
1 31793U 07029B   26092.83617319 -.00000077  00000+0 -15193-4 0  9996
2 31793  70.9742 121.6284 0002875 277.3899 257.0162 14.14843881968788
KORONAS-FOTON           
1 33504U 09003A   26092.87892502  .00024158  00000+0  52707-3 0  9990
2 33504  82.4279 250.7135 0011520  70.9796 289.2698 15.44014391949478
CZ-2C R/B               
1 37731U 11030B   26092.40010832  .00002051  00000+0  26404-3 0  9999
2 37731  97.8585  49.1963 0050969 273.4339 202.0439 14.81307565793602
H-2A R/B                
1 38341U 12025E   26092.88632529  .00004306  00000+0  38944-3 0  9994
2 38341  98.4773  61.8793 0043111 232.7624 126.9658 14.95342386751835
SHIJIAN-16 (SJ-16)      
1 39358U 13057A   26092.96334550  .00002131  00000+0  21026-3 0  9998
2 39358  74.9718 139.1364 0015313  49.4762 310.7758 14.92438725675125
SL-4 R/B                
1 39679U 14021B   26092.71021321  .00023478  00000+0  50080-3 0  9997
2 39679  51.6056 220.0209 0094675 190.5616 169.3382 15.40065411659978
